NORAD_CAT_ID,OBJECT_NAME,OBJECT_TYPE,EPOCH,MEAN_MOTION,ECCENTRICITY,INCLINATION,RA_OF_ASC_NODE,ARG_OF_PERICENTER,MEAN_ANOMALY,BSTAR,MEAN_MOTION_DOT,MEAN_MOTION_DDOT,TLE_LINE0,TLE_LINE1,TLE_LINE2,SEMIMAJOR_AXIS,PERIOD,APOGEE,PERIGEE,DECAYED
56787.0,STARLINK-6326,PAYLOAD,2024-08-01 18:58:23,14.98343161,0.0002883,70.002,359.1009,263.8458,96.2372,0.00018488,2.114e-05,0.0,0 STARLINK-6326,1 56787U 23078W   24214.79055149  .00002114  00000-0  18488-3 0  9996,2 56787  70.0020 359.1009 0002883 263.8458  96.2372 14.98343161 65569,6950.152,96.106,574.021,570.013,0.0
56787.0,STARLINK-6326,PAYLOAD,2024-08-02 12:35:53,14.98322971,0.0003052,70.0023,357.2522,264.8119,95.2692,4.8382e-05,4.84e-06,0.0,0 STARLINK-6326,1 56787U 23078W   24215.52492806  .00000484  00000-0  48382-4 0  9998,2 56787  70.0023 357.2522 0003052 264.8119  95.2692 14.98322971 65936,6950.215,96.107,574.201,569.958,0.0
56787.0,STARLINK-6326,PAYLOAD,2024-08-02 14:12:01,14.98322671,0.0003003,70.0023,357.0837,264.8867,95.1949,3.1394e-05,2.82e-06,0.0,0 STARLINK-6326,1 56787U 23078W   24215.59168908  .00000282  00000-0  31394-4 0  9999,2 56787  70.0023 357.0837 0003003 264.8867  95.1949 14.98322671 65682,6950.216,96.107,574.168,569.993,0.0
56787.0,STARLINK-6326,PAYLOAD,2024-08-02 19:00:26,14.98324452,0.0003197,70.0014,356.5761,270.4462,89.6331,4.4206e-05,4.34e-06,0.0,0 STARLINK-6326,1 56787U 23078W   24215.79196838  .00000434  00000-0  44206-4 0  9999,2 56787  70.0014 356.5761 0003197 270.4462  89.6331 14.98324452 65716,6950.21,96.107,574.297,569.853,0.0
56787.0,STARLINK-6326,PAYLOAD,2024-08-03 12:37:54,14.98336325,0.00031,70.0018,354.725,270.6512,89.4292,-1.5584e-05,-2.79e-06,0.0,0 STARLINK-6326,1 56787U 23078W   24216.52632294 -.00000279  00000-0 -15584-4 0  9998,2 56787  70.0018 354.7250 0003100 270.6512  89.4292 14.98336325 66082,6950.173,96.107,574.193,569.884,0.0
56787.0,STARLINK-6326,PAYLOAD,2024-08-03 14:14:02,14.98336911,0.0003098,70.0018,354.5568,270.8952,89.1852,-9.702e-06,-2.09e-06,0.0,0 STARLINK-6326,1 56787U 23078W   24216.59308229 -.00000209  00000-0 -97020-5 0  9992,2 56787  70.0018 354.5568 0003098 270.8952  89.1852 14.98336911 65830,6950.172,96.107,574.19,569.883,0.0
56787.0,STARLINK-6326,PAYLOAD,2024-08-03 19:02:25,14.98346631,0.0003172,70.0018,354.051,272.5465,87.5331,-9.1107e-06,-2.02e-06,0.0,0 STARLINK-6326,1 56787U 23078W   24216.79335441 -.00000202  00000-0 -91107-5 0  9993,2 56787  70.0018 354.0510 0003172 272.5465  87.5331 14.98346631 66120,6950.141,96.106,574.211,569.802,0.0
56787.0,STARLINK-6326,PAYLOAD,2024-08-04 03:03:06,14.9833847,0.000311,70.0017,353.209,272.5026,87.5777,-9.6147e-05,-1.24e-05,0.0,0 STARLINK-6326,1 56787U 23078W   24217.12716046 -.00001240  00000-0 -96147-4 0  9996,2 56787  70.0017 353.2090 0003110 272.5026  87.5777 14.98338470 66179,6950.167,96.106,574.193,569.87,0.0
56787.0,STARLINK-6326,PAYLOAD,2024-08-04 12:39:55,14.98320234,0.0003121,70.0019,352.1995,272.7308,87.3493,3.8536e-05,3.67e-06,0.0,0 STARLINK-6326,1 56787U 23078W   24217.52773120  .00000367  00000-0  38536-4 0  9991,2 56787  70.0019 352.1995 0003121 272.7308  87.3493 14.98320234 66239,6950.223,96.108,574.257,569.919,0.0
56787.0,STARLINK-6326,PAYLOAD,2024-08-04 14:16:03,14.9832435,0.0003014,70.0016,352.0311,272.7053,87.3761,8.1785e-05,8.83e-06,0.0,0 STARLINK-6326,1 56787U 23078W   24217.59448789  .00000883  00000-0  81785-4 0  9995,2 56787  70.0016 352.0311 0003014 272.7053  87.3761 14.98324350 65987,6950.21,96.107,574.17,569.981,0.0
56787.0,STARLINK-6326,PAYLOAD,2024-08-04 19:04:27,14.98332721,0.0002958,70.0018,351.5262,272.4486,87.6334,0.00018191,2.078e-05,0.0,0 STARLINK-6326,1 56787U 23078W   24217.79476146  .00002078  00000-0  18191-3 0  9993,2 56787  70.0018 351.5262 0002958 272.4486  87.6334 14.98332721 66274,6950.184,96.107,574.105,569.994,0.0
56787.0,STARLINK-6326,PAYLOAD,2024-08-05 19:06:27,14.98342523,0.0002893,70.0036,349.0012,272.775,87.3078,0.00017722,2.023e-05,0.0,0 STARLINK-6326,1 56787U 23078W   24218.79615611  .00002023  00000-0  17722-3 0  9995,2 56787  70.0036 349.0012 0002893 272.7750  87.3078 14.98342523 66424,6950.154,96.106,574.03,570.008,0.0
56787.0,STARLINK-6326,PAYLOAD,2024-08-06 12:43:55,14.98360847,0.0003205,70.003,347.1484,270.8513,89.2279,0.000587,6.924e-05,0.0,0 STARLINK-6326,1 56787U 23078W   24219.53050035  .00006924  00000-0  58700-3 0  9996,2 56787  70.0030 347.1484 0003205 270.8513  89.2279 14.98360847 66539,6950.098,96.105,574.19,569.735,0.0
56787.0,STARLINK-6326,PAYLOAD,2024-08-06 14:20:03,14.9834185,0.0002923,70.0038,346.9811,269.548,90.5344,7.4027e-05,7.91e-06,0.0,0 STARLINK-6326,1 56787U 23078W   24219.59726788  .00000791  00000-0  74027-4 0  9994,2 56787  70.0038 346.9811 0002923 269.5480  90.5344 14.98341850 66285,6950.156,96.106,574.053,569.99,0.0
56787.0,STARLINK-6326,PAYLOAD,2024-08-06 17:32:20,14.98333456,0.000311,70.0033,346.6431,279.8144,80.2664,-0.00017336,-2.161e-05,0.0,0 STARLINK-6326,1 56787U 23078W   24219.73079141 -.00002161  00000-0 -17336-3 0  9998,2 56787  70.0033 346.6431 0003110 279.8144  80.2664 14.98333456 66560,6950.182,96.107,574.209,569.886,0.0
56787.0,STARLINK-6326,PAYLOAD,2024-08-07 12:45:57,14.98325165,0.0003069,70.0033,344.6241,274.329,85.7518,-0.00023822,-2.934e-05,0.0,0 STARLINK-6326,1 56787U 23078W   24220.53191401 -.00002934  00000-0 -23822-3 0  9997,2 56787  70.0033 344.6241 0003069 274.3290  85.7518 14.98325165 66423,6950.208,96.107,574.206,569.94,0.0
56787.0,STARLINK-6326,PAYLOAD,2024-08-07 17:34:21,14.98335759,0.0002905,70.0036,344.1191,269.1008,90.9818,0.00017471,1.993e-05,0.0,0 STARLINK-6326,1 56787U 23078W   24220.73219124  .00001993  00000-0  17471-3 0  9997,2 56787  70.0036 344.1191 0002905 269.1008  90.9818 14.98335759 66715,6950.175,96.107,574.059,570.021,0.0
56787.0,STARLINK-6326,PAYLOAD,2024-08-08 12:47:58,14.98331155,0.0002505,70.0051,342.1029,254.9422,105.146,0.00054569,6.424e-05,0.0,0 STARLINK-6326,1 56787U 23078W   24221.53331750  .00006424  00000-0  54569-3 0  9999,2 56787  70.0051 342.1029 0002505 254.9422 105.1460 14.98331155 66570,6950.189,96.107,573.795,570.313,0.0
56787.0,STARLINK-6326,PAYLOAD,2024-08-08 17:36:22,14.98335698,0.000249,70.0051,341.5982,255.9443,104.1439,0.0005718,6.737e-05,0.0,0 STARLINK-6326,1 56787U 23078W   24221.73359669  .00006737  00000-0  57180-3 0  9999,2 56787  70.0051 341.5982 0002490 255.9443 104.1439 14.98335698 66861,6950.175,96.107,573.771,570.31,0.0
56787.0,STARLINK-6326,PAYLOAD,2024-08-09 12:49:59,14.9833412,0.0002466,70.0051,339.5796,256.4236,103.6648,0.00027609,3.203e-05,0.0,0 STARLINK-6326,1 56787U 23078W   24222.53471690  .00003203  00000-0  27609-3 0  9995,2 56787  70.0051 339.5796 0002466 256.4236 103.6648 14.98334120 66988,6950.18,96.107,573.759,570.331,0.0
56787.0,STARLINK-6326,PAYLOAD,2024-08-09 14:26:07,14.9833752,0.0002611,70.0049,339.4109,265.4745,94.6116,0.00037782,4.419e-05,0.0,0 STARLINK-6326,1 56787U 23078W   24222.60147655  .00004419  00000-0  37782-3 0  9997,2 56787  70.0049 339.4109 0002611 265.4745  94.6116 14.98337520 66738,6950.17,96.107,573.849,570.22,0.0
56787.0,STARLINK-6326,PAYLOAD,2024-08-09 17:38:23,14.98339139,0.0002693,70.0047,339.0739,268.5151,91.5699,0.00039698,4.648e-05,0.0,0 STARLINK-6326,1 56787U 23078W   24222.73499559  .00004648  00000-0  39698-3 0  9996,2 56787  70.0047 339.0739 0002693 268.5151  91.5699 14.98339139 66758,6950.165,96.106,573.901,570.158,0.0
56787.0,STARLINK-6326,PAYLOAD,2024-08-10 12:52:00,14.98329491,0.0002596,70.0052,337.0552,267.9829,92.1033,9.2822e-05,1.015e-05,0.0,0 STARLINK-6326,1 56787U 23078W   24223.53611954  .00001015  00000-0  92822-4 0  9994,2 56787  70.0052 337.0552 0002596 267.9829  92.1033 14.98329491 67134,6950.194,96.107,573.864,570.255,0.0
56787.0,STARLINK-6326,PAYLOAD,2024-08-10 14:28:08,14.98333831,0.0002355,70.0048,336.8865,259.5946,100.4947,0.00017682,2.018e-05,0.0,0 STARLINK-6326,1 56787U 23078W   24223.60287725  .00002018  00000-0  17682-3 0  9991,2 56787  70.0048 336.8865 0002355 259.5946 100.4947 14.98333831 66884,6950.181,96.107,573.683,570.409,0.0
56787.0,STARLINK-6326,PAYLOAD,2024-08-10 17:40:24,14.98340493,0.0002456,70.0046,336.5501,259.634,100.4542,0.00034291,4.002e-05,0.0,0 STARLINK-6326,1 56787U 23078W   24223.73639429  .00004002  00000-0  34291-3 0  9997,2 56787  70.0046 336.5501 0002456 259.6340 100.4542 14.98340493 67162,6950.16,96.106,573.732,570.318,0.0
56787.0,STARLINK-6326,PAYLOAD,2024-08-11 09:41:45,14.98329252,0.0002481,70.0063,334.8655,256.5884,103.4999,6.2179e-05,6.49e-06,0.0,0 STARLINK-6326,1 56787U 23078W   24224.40399960  .00000649  00000-0  62179-4 0  9995,2 56787  70.0063 334.8655 0002481 256.5884 103.4999 14.98329252 67269,6950.195,96.107,573.785,570.336,0.0
56787.0,STARLINK-6326,PAYLOAD,2024-08-11 14:30:09,14.98338648,0.0002796,70.0037,334.3596,267.0391,93.0449,0.00028149,3.268e-05,0.0,0 STARLINK-6326,1 56787U 23078W   24224.60427656  .00003268  00000-0  28149-3 0  9999,2 56787  70.0037 334.3596 0002796 267.0391  93.0449 14.98338648 67036,6950.166,96.106,573.974,570.088,0.0
56787.0,STARLINK-6326,PAYLOAD,2024-08-12 00:06:57,14.98344102,0.0003022,70.0034,333.3505,263.2338,96.8478,0.00042338,4.964e-05,0.0,0 STARLINK-6326,1 56787U 23078W   24225.00483310  .00004964  00000-0  42338-3 0  9993,2 56787  70.0034 333.3505 0003022 263.2338  96.8478 14.98344102 67354,6950.149,96.106,574.115,569.914,0.0
56787.0,STARLINK-6326,PAYLOAD,2024-08-12 09:43:45,14.9834394,0.0002676,70.0046,332.341,263.361,96.7244,0.00037018,4.328e-05,0.0,0 STARLINK-6326,1 56787U 23078W   24225.40539029  .00004328  00000-0  37018-3 0  9999,2 56787  70.0046 332.3410 0002676 263.3610  96.7244 14.98343940 67156,6950.15,96.106,573.875,570.155,0.0
56787.0,STARLINK-6326,PAYLOAD,2024-08-13 00:08:56,14.9837625,0.000244,70.0048,330.8257,273.5758,86.5122,0.00098671,0.00011714,0.0,0 STARLINK-6326,1 56787U 23078W   24226.00621158  .00011714  00000-0  98671-3 0  9990,2 56787  70.0048 330.8257 0002440 273.5758  86.5122 14.98376250 67506,6950.05,96.104,573.611,570.219,0.0
